[{"OBJECT_NAME":"STARLINK-31861","OBJECT_ID":"2024-100X","EPOCH":"2026-03-09T04:42:32.806656","MEAN_MOTION":15.27559822,"ECCENTRICITY":7.599e-5,"INCLINATION":43.0017,"RA_OF_ASC_NODE":121.043,"ARG_OF_PERICENTER":272.0298,"MEAN_ANOMALY":88.0466,"EPHEMERIS_TYPE":0,"CLASSIFICATION_TYPE":"U","NORAD_CAT_ID":59906,"ELEMENT_SET_NO":999,"REV_AT_EPOCH":10115,"BSTAR":-2.2781301e-5,"MEAN_MOTION_DOT":-8.88e-6,"MEAN_MOTION_DDOT":0},{"OBJECT_NAME":"FLOCK 4G-15","OBJECT_ID":"2025-009BX","EPOCH":"2026-03-09T17:13:37.807680","MEAN_MOTION":15.27266411,"ECCENTRICITY":0.00036988,"INCLINATION":97.4054,"RA_OF_ASC_NODE":151.1927,"ARG_OF_PERICENTER":316.8208,"MEAN_ANOMALY":43.274,"EPHEMERIS_TYPE":0,"CLASSIFICATION_TYPE":"U","NORAD_CAT_ID":62678,"ELEMENT_SET_NO":999,"REV_AT_EPOCH":12135,"BSTAR":0.00047574812,"MEAN_MOTION_DOT":0.00012647,"MEAN_MOTION_DDOT":0}]
