STARLINK-31861          
1 59906U 24100X   26068.19621304 -.00000888  00000+0 -22781-4 0  9993
2 59906  43.0017 121.0430 0000759 272.0298  88.0466 15.27559822101154
FLOCK 4G-15             
1 62678U 25009BX  26068.71779869  .00012647  00000+0  47575-3 0  9991
2 62678  97.4054 151.1927 0003699 316.8208  43.2740 15.27266411121358
